{
    "links": {
        "self": "http://www.neowsapp.com/rest/v1/neo/3836735?api_key=iIulBulltgU6a56xZRHN4H3l9WmuAYTsLGpBGhQ2"
    },
    "id": "3836735",
    "neo_reference_id": "3836735",
    "name": "(2018 XW)",
    "designation": "2018 XW",
    "nasa_jpl_url": "http://ssd.jpl.nasa.gov/sbdb.cgi?sstr=3836735",
    "absolute_magnitude_h": 24.8,
    "estimated_diameter": {
        "kilometers": {
            "estimated_diameter_min": 0.0291443905,
            "estimated_diameter_max": 0.0651688382
        },
        "meters": {
            "estimated_diameter_min": 29.1443904535,
            "estimated_diameter_max": 65.1688382168
        },
        "miles": {
            "estimated_diameter_min": 0.018109479,
            "estimated_diameter_max": 0.0404940262
        },
        "feet": {
            "estimated_diameter_min": 95.6180819754,
            "estimated_diameter_max": 213.8085311752
        }
    },
    "is_potentially_hazardous_asteroid": false,
    "close_approach_data": [
        {
            "close_approach_date": "2018-12-08",
            "close_approach_date_full": "2018-Dec-08 22:00",
            "epoch_date_close_approach": 1544306400000,
            "relative_velocity": {
                "kilometers_per_second": "8.2948829903",
                "kilometers_per_hour": "29861.5787650227",
                "miles_per_hour": "18554.8237609665"
            },
            "miss_distance": {
                "astronomical": "0.0236990168",
                "lunar": "9.2189175352",
                "kilometers": "3545322.434374216",
                "miles": "2202961.2080515408"
            },
            "orbiting_body": "Earth"
        }
    ],
    "orbital_data": {
        "orbit_id": "10",
        "orbit_determination_date": "2019-05-29 18:58:42",
        "first_observation_date": "2018-12-06",
        "last_observation_date": "2018-12-18",
        "data_arc_in_days": 12,
        "observations_used": 98,
        "orbit_uncertainty": "7",
        "minimum_orbit_intersection": ".023414",
        "jupiter_tisserand_invariant": "3.263",
        "epoch_osculation": "2459000.5",
        "eccentricity": ".5806705545567811",
        "semi_major_axis": "2.402998826263245",
        "inclination": "7.251911790985491",
        "ascending_node_longitude": "80.23065174191615",
        "orbital_period": "1360.594668623637",
        "perihelion_distance": "1.007648165217673",
        "perihelion_argument": "359.6452553678765",
        "aphelion_distance": "3.798349487308817",
        "perihelion_time": "2458463.590663239095",
        "mean_anomaly": "142.0609426828442",
        "mean_motion": ".2645901886152267",
        "equinox": "J2000",
        "orbit_class": {
            "orbit_class_type": "APO",
            "orbit_class_description": "Near-Earth asteroid orbits which cross the Earth’s orbit similar to that of 1862 Apollo",
            "orbit_class_range": "a (semi-major axis) > 1.0 AU; q (perihelion) < 1.017 AU"
        }
    },
    "is_sentry_object": false
}